$$SOE
2459580.500000000, A.D. 2022-Jan-01 00:00:00.0000, 2.138679125728125E+08, -3.424491653819751E+08, -5.944492484270468E+06,
2459587.500000000, A.D. 2022-Jan-08 00:00:00.0000, 2.235507784411627E+08, -3.364614618649938E+08, -5.745738465099931E+06,
2459594.500000000, A.D. 2022-Jan-15 00:00:00.0000, 2.330692049032845E+08, -3.302260312500345E+08, -5.542756977472961E+06,
2459601.500000000, A.D. 2022-Jan-22 00:00:00.0000, 2.424164885827810E+08, -3.237478801509653E+08, -5.335705100700215E+06,
2459608.500000000, A.D. 2022-Jan-29 00:00:00.0000, 2.515861061531252E+08, -3.170322147016547E+08, -5.124742953737944E+06,
2459615.500000000, A.D. 2022-Feb-05 00:00:00.0000, 2.605717191077677E+08, -3.100844333625380E+08, -4.910033327339679E+06,
2459622.500000000, A.D. 2022-Feb-12 00:00:00.0000, 2.693671802772616E+08, -3.029101205142285E+08, -4.691741598266199E+06,
2459629.500000000, A.D. 2022-Feb-19 00:00:00.0000, 2.779665407571703E+08, -2.955150384966982E+08, -4.470035611210704E+06,
2459636.500000000, A.D. 2022-Feb-26 00:00:00.0000, 2.863640559253938E+08, -2.879051188456872E+08, -4.245085468038082E+06,
2459643.500000000, A.D. 2022-Mar-05 00:00:00.0000, 2.945541906997361E+08, -2.800864533717831E+08, -4.017063290246040E+06,
2459650.500000000, A.D. 2022-Mar-12 00:00:00.0000, 3.025316242511239E+08, -2.720652851764048E+08, -3.786142981284872E+06,
2459657.500000000, A.D. 2022-Mar-19 00:00:00.0000, 3.102912542391216E+08, -2.638479996052515E+08, -3.552499993878692E+06,
2459664.500000000, A.D. 2022-Mar-26 00:00:00.0000, 3.178282005893359E+08, -2.554411151736276E+08, -3.316311105806530E+06,
2459671.500000000, A.D. 2022-Apr-02 00:00:00.0000, 3.251378088790139E+08, -2.468512745470543E+08, -3.077754215891749E+06,
2459678.500000000, A.D. 2022-Apr-09 00:00:00.0000, 3.322156536035900E+08, -2.380852355983881E+08, -2.837008185694933E+06,
2459685.500000000, A.D. 2022-Apr-16 00:00:00.0000, 3.390575416859186E+08, -2.291498619132519E+08, -2.594252706886724E+06,
2459692.500000000, A.D. 2022-Apr-23 00:00:00.0000, 3.456595149669476E+08, -2.200521116873144E+08, -2.349667989677340E+06,
2459699.500000000, A.D. 2022-Apr-30 00:00:00.0000, 3.520178498146760E+08, -2.107990272885356E+08, -2.103434284722388E+06,
2459706.500000000, A.D. 2022-May-07 00:00:00.0000, 3.581290569204293E+08, -2.013977274822524E+08, -1.855731681388736E+06,
2459713.500000000, A.D. 2022-May-14 00:00:00.0000, 3.639898826811594E+08, -1.918553993035868E+08, -1.606740062025502E+06,
2459720.500000000, A.D. 2022-May-21 00:00:00.0000, 3.695973101483063E+08, -1.821792888419120E+08, -1.356638964197323E+06,
2459727.500000000, A.D. 2022-May-28 00:00:00.0000, 3.749485590756519E+08, -1.723766919188712E+08, -1.105607385601684E+06,
2459734.500000000, A.D. 2022-Jun-04 00:00:00.0000, 3.800410853539553E+08, -1.624549449930035E+08, -8.538235830611140E+05,
2459741.500000000, A.D. 2022-Jun-11 00:00:00.0000, 3.848725799885827E+08, -1.524214163058823E+08, -6.014648791579530E+05,
2459748.500000000, A.D. 2022-Jun-18 00:00:00.0000, 3.894409676731083E+08, -1.422834972710869E+08, -3.487074793764576E+05,
2459755.500000000, A.D. 2022-Jun-25 00:00:00.0000, 3.937444050060176E+08, -1.320485941531444E+08, -9.572630535776913E+04,
2459762.500000000, A.D. 2022-Jul-02 00:00:00.0000, 3.977812785038541E+08, -1.217241201167282E+08, 1.573051380262896E+05,
2459769.500000000, A.D. 2022-Jul-09 00:00:00.0000, 4.015502028197108E+08, -1.113174874830686E+08, 4.102148404593021E+05,
2459776.500000000, A.D. 2022-Jul-16 00:00:00.0000, 4.050500191311068E+08, -1.008360991226777E+08, 6.628324026151448E+05,
2459783.500000000, A.D. 2022-Jul-23 00:00:00.0000, 4.082797915202374E+08, -9.028733891873623E+07, 9.149893997215927E+05,
2459790.500000000, A.D. 2022-Jul-30 00:00:00.0000, 4.112388014496778E+08, -7.967856466729008E+07, 1.166519710586399E+06,
2459797.500000000, A.D. 2022-Aug-06 00:00:00.0000, 4.139265439477984E+08, -6.901710277430594E+07, 1.417259534786437E+06,
2459804.500000000, A.D. 2022-Aug-13 00:00:00.0000, 4.163427246979792E+08, -5.831024200030879E+07, 1.667047398716047E+06,
2459811.500000000, A.D. 2022-Aug-20 00:00:00.0000, 4.184872564815792E+08, -4.756522676089167E+07, 1.915724253571630E+06,
2459818.500000000, A.D. 2022-Aug-27 00:00:00.0000, 4.203602550620024E+08, -3.678925071412229E+07, 2.163133599888267E+06,
2459825.500000000, A.D. 2022-Sep-03 00:00:00.0000, 4.219620347764040E+08, -2.598945074892133E+07, 2.409121607039921E+06,
2459832.500000000, A.D. 2022-Sep-10 00:00:00.0000, 4.232931039431829E+08, -1.517290135302794E+07, 2.653537221539852E+06,
2459839.500000000, A.D. 2022-Sep-17 00:00:00.0000, 4.243541601321707E+08, -4.346609363803964E+06, 2.896232261388543E+06,
2459846.500000000, A.D. 2022-Sep-24 00:00:00.0000, 4.251460853748834E+08, 6.482490846671790E+06, 3.137061486774831E+06,
2459853.500000000, A.D. 2022-Oct-01 00:00:00.0000, 4.256699415707065E+08, 1.730754173011088E+07, 3.375882623121814E+06,
2459860.500000000, A.D. 2022-Oct-08 00:00:00.0000, 4.259269665102198E+08, 2.812176698794224E+07, 3.612556341422535E+06,
2459867.500000000, A.D. 2022-Oct-15 00:00:00.0000, 4.259185695981058E+08, 3.891847726880100E+07, 3.846946379196718E+06,
2459874.500000000, A.D. 2022-Oct-22 00:00:00.0000, 4.256463251128939E+08, 4.969107545899477E+07, 4.078919864775147E+06,
2459881.500000000, A.D. 2022-Oct-29 00:00:00.0000, 4.251119655192664E+08, 6.043305897481929E+07, 4.308347403660517E+06,
2459888.500000000, A.D. 2022-Nov-05 00:00:00.0000, 4.243173769452791E+08, 7.113802180116497E+07, 4.535102958005968E+06,
2459895.500000000, A.D. 2022-Nov-12 00:00:00.0000, 4.232645948726420E+08, 8.179965754891120E+07, 4.759063802919507E+06,
2459902.500000000, A.D. 2022-Nov-19 00:00:00.0000, 4.219557993340870E+08, 9.241176258236337E+07, 4.980110547684584E+06,
2459909.500000000, A.D. 2022-Nov-26 00:00:00.0000, 4.203933098923159E+08, 1.029682388248758E+08, 5.198127165467821E+06,
2459916.500000000, A.D. 2022-Dec-03 00:00:00.0000, 4.185795805775489E+08, 1.134630962371444E+08, 5.413001015474200E+06,
2459923.500000000, A.D. 2022-Dec-10 00:00:00.0000, 4.165171948392084E+08, 1.238904549935323E+08, 5.624622855097830E+06,
2459930.500000000, A.D. 2022-Dec-17 00:00:00.0000, 4.142088605458088E+08, 1.342445473387460E+08, 5.832886838026166E+06,
2459937.500000000, A.D. 2022-Dec-24 00:00:00.0000, 4.116574051514224E+08, 1.445197190667649E+08, 6.037690483204432E+06,
2459944.500000000, A.D. 2022-Dec-31 00:00:00.0000, 4.088657713947375E+08, 1.547104307370101E+08, 6.238934590912163E+06,
2459951.500000000, A.D. 2023-Jan-07 00:00:00.0000, 4.058370136594319E+08, 1.648112595972303E+08, 6.436523173494823E+06,
2459958.500000000, A.D. 2023-Jan-14 00:00:00.0000, 4.025742930333377E+08, 1.748169027193520E+08, 6.630363622236937E+06,
2459965.500000000, A.D. 2023-Jan-21 00:00:00.0000, 3.990808704302413E+08, 1.847221781866798E+08, 6.820366911047958E+06,
2459972.500000000, A.D. 2023-Jan-28 00:00:00.0000, 3.953601014507805E+08, 1.945220241443630E+08, 7.006447484839678E+06,
2459979.500000000, A.D. 2023-Feb-04 00:00:00.0000, 3.914154327774816E+08, 2.042114987472997E+08, 7.188523099242687E+06,
2459986.500000000, A.D. 2023-Feb-11 00:00:00.0000, 3.872503983113957E+08, 2.137857808195210E+08, 7.366514760785550E+06,
2459993.500000000, A.D. 2023-Feb-18 00:00:00.0000, 3.828686149893947E+08, 2.232401704095782E+08, 7.540346706318811E+06,
2460000.500000000, A.D. 2023-Feb-25 00:00:00.0000, 3.782737785460373E+08, 2.325700890883498E+08, 7.709946384601161E+06,
2460007.500000000, A.D. 2023-Mar-04 00:00:00.0000, 3.734696593230028E+08, 2.417710800176536E+08, 7.875244432598203E+06,
2460014.500000000, A.D. 2023-Mar-11 00:00:00.0000, 3.684600981565744E+08, 2.508388078009090E+08, 8.036174644513115E+06,
2460021.500000000, A.D. 2023-Mar-18 00:00:00.0000, 3.632490023935609E+08, 2.597690580771492E+08, 8.192673925911903E+06,
2460028.500000000, A.D. 2023-Mar-25 00:00:00.0000, 3.578403422430802E+08, 2.685577368209231E+08, 8.344682211114362E+06,
2460035.500000000, A.D. 2023-Apr-01 00:00:00.0000, 3.522381478924804E+08, 2.772008697493452E+08, 8.492142337498084E+06,
2460042.500000000, A.D. 2023-Apr-08 00:00:00.0000, 3.464465067729293E+08, 2.856946030667881E+08, 8.635000033416212E+06,
2460049.500000000, A.D. 2023-Apr-15 00:00:00.0000, 3.404695586354587E+08, 2.940352044478915E+08, 8.773204144066155E+06,
2460056.500000000, A.D. 2023-Apr-22 00:00:00.0000, 3.343114902476171E+08, 3.022190612166411E+08, 8.906706680508152E+06,
2460063.500000000, A.D. 2023-Apr-29 00:00:00.0000, 3.279765324475115E+08, 3.102426779809589E+08, 9.035462625071198E+06,
2460070.500000000, A.D. 2023-May-06 00:00:00.0000, 3.214689577931977E+08, 3.181026755090924E+08, 9.159429800061256E+06,
2460077.500000000, A.D. 2023-May-13 00:00:00.0000, 3.147930778286126E+08, 3.257957899607244E+08, 9.278568816393584E+06,
2460084.500000000, A.D. 2023-May-20 00:00:00.0000, 3.079532401989124E+08, 3.333188719883365E+08, 9.392843040531695E+06,
2460091.500000000, A.D. 2023-May-27 00:00:00.0000, 3.009538258074486E+08, 3.406688856855908E+08, 9.502218559478506E+06,
2460098.500000000, A.D. 2023-Jun-03 00:00:00.0000, 2.937992460704974E+08, 3.478429074145276E+08, 9.606664140505567E+06,
2460105.500000000, A.D. 2023-Jun-10 00:00:00.0000, 2.864939402918350E+08, 3.548381245033546E+08, 9.706151182138905E+06,
2460112.500000000, A.D. 2023-Jun-17 00:00:00.0000, 2.790423732443560E+08, 3.616518337601327E+08, 9.800653643164054E+06,
2460119.500000000, A.D. 2023-Jun-24 00:00:00.0000, 2.714490332770443E+08, 3.682814398634449E+08, 9.890147924705863E+06,
2460126.500000000, A.D. 2023-Jul-01 00:00:00.0000, 2.637184311993090E+08, 3.747244544630246E+08, 9.974612749628901E+06,
2460133.500000000, A.D. 2023-Jul-08 00:00:00.0000, 2.558550982664299E+08, 3.809784968149576E+08, 1.005402925968900E+07,
2460140.500000000, A.D. 2023-Jul-15 00:00:00.0000, 2.478635819846107E+08, 3.870412931250563E+08, 1.012838121637756E+07,
2460147.500000000, A.D. 2023-Jul-22 00:00:00.0000, 2.397484432551456E+08, 3.929106735729235E+08, 1.019765489816129E+07,
$$EOE